STARLINK-1494           
1 45760U 20038AG  26068.49716211  .00096828  00000+0  67102-3 0  9999
2 45760  53.0480 152.5788 0005412   2.9213 357.1836 15.73709706317367
STARLINK-11623 [DTC]    
1 63276U 25053M   26068.54937896  .00184340  00000+0  14074-2 0  9999
2 63276  42.9998 113.4145 0000929 263.0312  97.0450 15.70857800 57630
